IRIDIUM 36 [-]          
1 24967U 97056C   23239.07390911  .00000453  00000+0  14803-3 0  9994
2 24967  86.3918  90.1426 0002088  81.2507 278.8926 14.36372418357420
IRIDIUM 39 [-]          
1 25042U 97069D   23238.78903561  .00000631  00000+0  16670-3 0  9993
2 25042  86.3945 133.9463 0018445 356.6858   3.4219 14.47323305353385
IRIDIUM 38 [-]          
1 25043U 97069E   23238.82752188  .00000474  00000+0  15392-3 0  9991
2 25043  86.4017 150.7381 0004143 102.1664 257.9997 14.36853837351093
IRIDIUM 42 [-]          
1 25077U 97077A   23238.81075774  .00000446  00000+0  14935-3 0  9996
2 25077  86.4028 156.1038 0002818  92.2148 267.9371 14.35172441346448
IRIDIUM 44 [-]          
1 25078U 97077B   23238.78811746  .00000469  00000+0  14577-3 0  9997
2 25078  86.3995 139.8339 0003792  64.0732 296.0856 14.38953579348727
IRIDIUM 45 [-]          
1 25104U 97082A   23239.42186212  .00012558  00000+0  83665-3 0  9994
2 25104  86.3814 359.6404 0182257 224.2069 134.4479 14.94302031352969
IRIDIUM 24 [-]          
1 25105U 97082B   23238.89107552  .00000632  00000+0  19150-3 0  9993
2 25105  86.3963 359.8697 0013746  96.8667 263.4097 14.40697631348108
IRIDIUM 51 [-]          
1 25262U 98018A   23239.41295072  .00018687  00000+0  10700-2 0  9991
2 25262  86.3966  10.3013 0169882 180.6135 179.4920 15.01006418347274
